[{"OBJECT_NAME":"HULIANWANG DIGUI-145","OBJECT_ID":"2026-007J","EPOCH":"2026-03-29T04:45:36.549216","MEAN_MOTION":13.29328028,"ECCENTRICITY":2.02e-5,"INCLINATION":50.0119,"RA_OF_ASC_NODE":12.3564,"ARG_OF_PERICENTER":74.1281,"MEAN_ANOMALY":285.9613,"EPHEMERIS_TYPE":0,"CLASSIFICATION_TYPE":"U","NORAD_CAT_ID":67443,"ELEMENT_SET_NO":999,"REV_AT_EPOCH":1015,"BSTAR":0.00012421,"MEAN_MOTION_DOT":-6.6e-7,"MEAN_MOTION_DDOT":0},{"OBJECT_NAME":"GUOWANG GROUP 20 OBJECT A","OBJECT_ID":"2026-047A","EPOCH":"2026-03-27T14:49:26.211072","MEAN_MOTION":13.95400488,"ECCENTRICITY":0.0001326,"INCLINATION":50.0073,"RA_OF_ASC_NODE":357.5704,"ARG_OF_PERICENTER":229.8596,"MEAN_ANOMALY":130.2189,"EPHEMERIS_TYPE":0,"CLASSIFICATION_TYPE":"U","NORAD_CAT_ID":68129,"ELEMENT_SET_NO":999,"REV_AT_EPOCH":208,"BSTAR":3.4814e-5,"MEAN_MOTION_DOT":-1.01e-6,"MEAN_MOTION_DDOT":0},{"OBJECT_NAME":"GUOWANG GROUP 20 OBJECT B","OBJECT_ID":"2026-047B","EPOCH":"2026-03-26T18:09:03.081024","MEAN_MOTION":13.9659141,"ECCENTRICITY":4.28e-5,"INCLINATION":50.0066,"RA_OF_ASC_NODE":1.0171,"ARG_OF_PERICENTER":307.3036,"MEAN_ANOMALY":52.7826,"EPHEMERIS_TYPE":0,"CLASSIFICATION_TYPE":"U","NORAD_CAT_ID":68130,"ELEMENT_SET_NO":999,"REV_AT_EPOCH":195,"BSTAR":5.5036e-5,"MEAN_MOTION_DOT":-7.2e-7,"MEAN_MOTION_DDOT":0},{"OBJECT_NAME":"GUOWANG GROUP 20 OBJECT C","OBJECT_ID":"2026-047C","EPOCH":"2026-03-26T19:49:39.748800","MEAN_MOTION":13.9686269,"ECCENTRICITY":4.8e-6,"INCLINATION":49.9996,"RA_OF_ASC_NODE":0.7054,"ARG_OF_PERICENTER":49.5998,"MEAN_ANOMALY":310.4907,"EPHEMERIS_TYPE":0,"CLASSIFICATION_TYPE":"U","NORAD_CAT_ID":68131,"ELEMENT_SET_NO":999,"REV_AT_EPOCH":197,"BSTAR":2.709e-5,"MEAN_MOTION_DOT":-1.11e-6,"MEAN_MOTION_DDOT":0},{"OBJECT_NAME":"GUOWANG GROUP 20 OBJECT D","OBJECT_ID":"2026-047D","EPOCH":"2026-03-24T19:43:51.842784","MEAN_MOTION":14.00513037,"ECCENTRICITY":0.00024162,"INCLINATION":50.0048,"RA_OF_ASC_NODE":8.7665,"ARG_OF_PERICENTER":7.3102,"MEAN_ANOMALY":352.7836,"EPHEMERIS_TYPE":0,"CLASSIFICATION_TYPE":"U","NORAD_CAT_ID":68132,"ELEMENT_SET_NO":999,"REV_AT_EPOCH":168,"BSTAR":3.2408862e-5,"MEAN_MOTION_DOT":-1.02e-6,"MEAN_MOTION_DDOT":0},{"OBJECT_NAME":"GUOWANG GROUP 20 OBJECT E","OBJECT_ID":"2026-047E","EPOCH":"2026-03-24T07:42:54.851616","MEAN_MOTION":14.01339008,"ECCENTRICITY":0.00032302,"INCLINATION":49.9979,"RA_OF_ASC_NODE":10.8404,"ARG_OF_PERICENTER":188.5214,"MEAN_ANOMALY":171.5635,"EPHEMERIS_TYPE":0,"CLASSIFICATION_TYPE":"U","NORAD_CAT_ID":68133,"ELEMENT_SET_NO":999,"REV_AT_EPOCH":162,"BSTAR":1.5966081e-5,"MEAN_MOTION_DOT":-1.26e-6,"MEAN_MOTION_DDOT":0},{"OBJECT_NAME":"GUOWANG GROUP 20 OBJECT F","OBJECT_ID":"2026-047F","EPOCH":"2026-03-24T02:31:27.101856","MEAN_MOTION":14.01903676,"ECCENTRICITY":4.752e-5,"INCLINATION":50.0123,"RA_OF_ASC_NODE":11.6502,"ARG_OF_PERICENTER":222.9253,"MEAN_ANOMALY":137.1614,"EPHEMERIS_TYPE":0,"CLASSIFICATION_TYPE":"U","NORAD_CAT_ID":68134,"ELEMENT_SET_NO":999,"REV_AT_EPOCH":158,"BSTAR":7.7668349e-5,"MEAN_MOTION_DOT":-3.2e-7,"MEAN_MOTION_DDOT":0},{"OBJECT_NAME":"GUOWANG GROUP 20 OBJECT G","OBJECT_ID":"2026-047G","EPOCH":"2026-03-26T17:51:49.939200","MEAN_MOTION":14.01583953,"ECCENTRICITY":0.00048065,"INCLINATION":50.0409,"RA_OF_ASC_NODE":0.8903,"ARG_OF_PERICENTER":213.0056,"MEAN_ANOMALY":147.0548,"EPHEMERIS_TYPE":0,"CLASSIFICATION_TYPE":"U","NORAD_CAT_ID":68135,"ELEMENT_SET_NO":999,"REV_AT_EPOCH":196,"BSTAR":0.00011069373,"MEAN_MOTION_DOT":1.8e-7,"MEAN_MOTION_DDOT":0},{"OBJECT_NAME":"GUOWANG GROUP 20 OBJECT H","OBJECT_ID":"2026-047H","EPOCH":"2026-03-25T00:46:09.563232","MEAN_MOTION":14.01074305,"ECCENTRICITY":0.0014532,"INCLINATION":49.953,"RA_OF_ASC_NODE":7.8688,"ARG_OF_PERICENTER":103.7924,"MEAN_ANOMALY":256.4596,"EPHEMERIS_TYPE":0,"CLASSIFICATION_TYPE":"U","NORAD_CAT_ID":68136,"ELEMENT_SET_NO":999,"REV_AT_EPOCH":171,"BSTAR":3.3918e-5,"MEAN_MOTION_DOT":-9.9e-7,"MEAN_MOTION_DDOT":0},{"OBJECT_NAME":"GUOWANG GROUP 20 OBJECT J","OBJECT_ID":"2026-047J","EPOCH":"2026-03-23T21:21:21.697344","MEAN_MOTION":14.02259904,"ECCENTRICITY":1.75e-5,"INCLINATION":50.0081,"RA_OF_ASC_NODE":12.5219,"ARG_OF_PERICENTER":124.6965,"MEAN_ANOMALY":235.3956,"EPHEMERIS_TYPE":0,"CLASSIFICATION_TYPE":"U","NORAD_CAT_ID":68137,"ELEMENT_SET_NO":999,"REV_AT_EPOCH":156,"BSTAR":9.1454e-6,"MEAN_MOTION_DOT":-1.37e-6,"MEAN_MOTION_DDOT":0}]
